{"type": "FeatureCollection", "features": [ {"type": "Feature", "properties": {"norad_id": 37867, "name": "COSMOS 2476 (744)", "group": "gnss", "lat": -60.05947068008033, "lon": 25.67460845697907, "alt_km": 19100.20197437617, "timestamp": "2025-12-15T20:48:54.127030+00:00", "meta": {"OBJECT_NAME": "COSMOS 2476 (744)", "OBJECT_ID": "2011-064A", "EPOCH": "2025-12-10T19:30:14.482368", "MEAN_MOTION": 2.13101258, "ECCENTRICITY": 0.00238922, "INCLINATION": 65.1614, "RA_OF_ASC_NODE": 79.2364, "ARG_OF_PERICENTER": 233.6597, "MEAN_ANOMALY": 135.7131, "EPHEMERIS_TYPE": 0, "CLASSIFICATION_TYPE": "U", "NORAD_CAT_ID": 37867, "ELEMENT_SET_NO": 999, "REV_AT_EPOCH": 10975, "BSTAR": 0, "MEAN_MOTION_DOT": -2.4e-07, "MEAN_MOTION_DDOT": 0}, "tle": {"line1": "1 37867U 11064A   25344.81266762 -.00000024  00000+0  00000+0 0  9994", "line2": "2 37867  65.1614  79.2364 0023892 233.6597 135.7131  2.13101258109752"}}, "geometry": {"type": "Point", "coordinates": [25.67460845697907, -60.05947068008033]}}, {"type": "Feature", "properties": {"norad_id": 37868, "name": "COSMOS 2477 (745)", "group": "gnss", "lat": 59.76086461835233, "lon": -153.31316194232167, "alt_km": 19155.3729390089, "timestamp": "2025-12-15T20:48:54.127042+00:00", "meta": {"OBJECT_NAME": "COSMOS 2477 (745)", "OBJECT_ID": "2011-064B", "EPOCH": "2025-12-14T18:55:29.558784", "MEAN_MOTION": 2.13102875, "ECCENTRICITY": 0.00211395, "INCLINATION": 65.1704, "RA_OF_ASC_NODE": 79.1794, "ARG_OF_PERICENTER": 234.5663, "MEAN_ANOMALY": 125.8854, "EPHEMERIS_TYPE": 0, "CLASSIFICATION_TYPE": "U", "NORAD_CAT_ID": 37868, "ELEMENT_SET_NO": 999, "REV_AT_EPOCH": 10983, "BSTAR": 0, "MEAN_MOTION_DOT": -5.6e-07, "MEAN_MOTION_DDOT": 0}, "tle": {"line1": "1 37868U 11064B   25348.78853656 -.00000056  00000+0  00000+0 0  9994", "line2": "2 37868  65.1704  79.1794 0021139 234.5663 125.8854  2.13102875109832"}}, "geometry": {"type": "Point", "coordinates": [-153.31316194232167, 59.76086461835233]}}, {"type": "Feature", "properties": {"norad_id": 37869, "name": "COSMOS 2475 (743)", "group": "gnss", "lat": 54.67099678917725, "lon": 119.85577426115655, "alt_km": 19190.54417214743, "timestamp": "2025-12-15T20:48:54.127054+00:00", "meta": {"OBJECT_NAME": "COSMOS 2475 (743)", "OBJECT_ID": "2011-064C", "EPOCH": "2025-12-13T13:22:27.614784", "MEAN_MOTION": 2.1310138, "ECCENTRICITY": 0.00262467, "INCLINATION": 65.1766, "RA_OF_ASC_NODE": 79.2411, "ARG_OF_PERICENTER": 248.6291, "MEAN_ANOMALY": 203.1701, "EPHEMERIS_TYPE": 0, "CLASSIFICATION_TYPE": "U", "NORAD_CAT_ID": 37869, "ELEMENT_SET_NO": 999, "REV_AT_EPOCH": 10981, "BSTAR": 0, "MEAN_MOTION_DOT": -5e-07, "MEAN_MOTION_DDOT": 0}, "tle": {"line1": "1 37869U 11064C   25347.55726406 -.00000050  00000+0  00000+0 0  9995", "line2": "2 37869  65.1766  79.2411 0026246 248.6291 203.1701  2.13101380109814"}}, "geometry": {"type": "Point", "coordinates": [119.85577426115655, 54.67099678917725]}}, {"type": "Feature", "properties": {"norad_id": 37948, "name": "BEIDOU-2 IGSO-5 (C10)", "group": "gnss", "lat": -26.07427543208833, "lon": 119.87901993563862, "alt_km": 35323.613045768834, "timestamp": "2025-12-15T20:48:54.127067+00:00", "meta": {"OBJECT_NAME": "BEIDOU-2 IGSO-5 (C10)", "OBJECT_ID": "2011-073A", "EPOCH": "2025-12-12T18:24:47.608416", "MEAN_MOTION": 1.00291151, "ECCENTRICITY": 0.01101752, "INCLINATION": 48.0199, "RA_OF_ASC_NODE": 273.857, "ARG_OF_PERICENTER": 222.308, "MEAN_ANOMALY": 314.7254, "EPHEMERIS_TYPE": 0, "CLASSIFICATION_TYPE": "U", "NORAD_CAT_ID": 37948, "ELEMENT_SET_NO": 999, "REV_AT_EPOCH": 5126, "BSTAR": 0, "MEAN_MOTION_DOT": -2.21e-06, "MEAN_MOTION_DDOT": 0}, "tle": {"line1": "1 37948U 11073A   25346.76721769 -.00000221  00000+0  00000+0 0  9992", "line2": "2 37948  48.0199 273.8570 0110175 222.3080 314.7254  1.00291151 51268"}}, "geometry": {"type": "Point", "coordinates": [119.87901993563862, -26.07427543208833]}}, {"type": "Feature", "properties": {"norad_id": 37951, "name": "LUCH 5A (SDCM/PRN 140)", "group": "gnss", "lat": 6.5545067639528405, "lon": -155.6622696090554, "alt_km": 35770.93556788352, "timestamp": "2025-12-15T20:48:54.127099+00:00", "meta": {"OBJECT_NAME": "LUCH 5A (SDCM/PRN 140)", "OBJECT_ID": "2011-074B", "EPOCH": "2025-12-14T12:30:06.467616", "MEAN_MOTION": 1.00275401, "ECCENTRICITY": 0.00054208, "INCLINATION": 8.2844, "RA_OF_ASC_NODE": 76.5598, "ARG_OF_PERICENTER": 182.1991, "MEAN_ANOMALY": 179.2937, "EPHEMERIS_TYPE": 0, "CLASSIFICATION_TYPE": "U", "NORAD_CAT_ID": 37951, "ELEMENT_SET_NO": 999, "REV_AT_EPOCH": 5120, "BSTAR": 0, "MEAN_MOTION_DOT": -3.3e-07, "MEAN_MOTION_DDOT": 0}, "tle": {"line1": "1 37951U 11074B   25348.52090819 -.00000033  00000+0  00000+0 0  9999", "line2": "2 37951   8.2844  76.5598 0005420 182.1991 179.2937  1.00275401 51201"}}, "geometry": {"type": "Point", "coordinates": [-155.6622696090554, 6.5545067639528405]}}, {"type": "Feature", "properties": {"norad_id": 38091, "name": "BEIDOU-2 G5 (C05)", "group": "gnss", "lat": 1.347060953321896, "lon": 95.84990097684557, "alt_km": 35833.01000626316, "timestamp": "2025-12-15T20:48:54.127120+00:00", "meta": {"OBJECT_NAME": "BEIDOU-2 G5 (C05)", "OBJECT_ID": "2012-008A", "EPOCH": "2025-12-14T22:15:32.898240", "MEAN_MOTION": 1.00276646, "ECCENTRICITY": 0.00125198, "INCLINATION": 3.1149, "RA_OF_ASC_NODE": 70.7041, "ARG_OF_PERICENTER": 228.6209, "MEAN_ANOMALY": 177.2276, "EPHEMERIS_TYPE": 0, "CLASSIFICATION_TYPE": "U", "NORAD_CAT_ID": 38091, "ELEMENT_SET_NO": 999, "REV_AT_EPOCH": 5052, "BSTAR": 0, "MEAN_MOTION_DOT": 7.4e-07, "MEAN_MOTION_DDOT": 0}, "tle": {"line1": "1 38091U 12008A   25348.92746410  .00000074  00000+0  00000+0 0  9996", "line2": "2 38091   3.1149  70.7041 0012519 228.6209 177.2276  1.00276646 50523"}}, "geometry": {"type": "Point", "coordinates": [95.84990097684557, 1.347060953321896]}}, {"type": "Feature", "properties": {"norad_id": 38250, "name": "BEIDOU-2 M3 (C11)", "group": "gnss", "lat": -26.766869096931057, "lon": 150.98846855825926, "alt_km": 21499.166663055847, "timestamp": "2025-12-15T20:48:54.127137+00:00", "meta": {"OBJECT_NAME": "BEIDOU-2 M3 (C11)", "OBJECT_ID": "2012-018A", "EPOCH": "2025-12-13T22:30:51.861600", "MEAN_MOTION": 1.86229879, "ECCENTRICITY": 0.00242907, "INCLINATION": 55.9188, "RA_OF_ASC_NODE": 311.1166, "ARG_OF_PERICENTER": 274.3199, "MEAN_ANOMALY": 85.3911, "EPHEMERIS_TYPE": 0, "CLASSIFICATION_TYPE": "U", "NORAD_CAT_ID": 38250, "ELEMENT_SET_NO": 999, "REV_AT_EPOCH": 9249, "BSTAR": 0, "MEAN_MOTION_DOT": -9.6e-07, "MEAN_MOTION_DDOT": 0}, "tle": {"line1": "1 38250U 12018A   25347.93810025 -.00000096  00000+0  00000+0 0  9993", "line2": "2 38250  55.9188 311.1166 0024290 274.3199  85.3911  1.86229879 92490"}}, "geometry": {"type": "Point", "coordinates": [150.98846855825926, -26.766869096931057]}}, {"type": "Feature", "properties": {"norad_id": 38251, "name": "BEIDOU-2 M4 (C12)", "group": "gnss", "lat": -54.23239084161969, "lon": -159.21393216125625, "alt_km": 21493.16699794287, "timestamp": "2025-12-15T20:48:54.127149+00:00", "meta": {"OBJECT_NAME": "BEIDOU-2 M4 (C12)", "OBJECT_ID": "2012-018B", "EPOCH": "2025-12-13T07:59:48.422112", "MEAN_MOTION": 1.86229462, "ECCENTRICITY": 0.00154528, "INCLINATION": 55.8208, "RA_OF_ASC_NODE": 310.3658, "ARG_OF_PERICENTER": 277.4494, "MEAN_ANOMALY": 82.3644, "EPHEMERIS_TYPE": 0, "CLASSIFICATION_TYPE": "U", "NORAD_CAT_ID": 38251, "ELEMENT_SET_NO": 999, "REV_AT_EPOCH": 9248, "BSTAR": 0, "MEAN_MOTION_DOT": -9.5e-07, "MEAN_MOTION_DDOT": 0}, "tle": {"line1": "1 38251U 12018B   25347.33319933 -.00000095  00000+0  00000+0 0  9999", "line2": "2 38251  55.8208 310.3658 0015452 277.4494  82.3644  1.86229462 92489"}}, "geometry": {"type": "Point", "coordinates": [-159.21393216125625, -54.23239084161969]}}, {"type": "Feature", "properties": {"norad_id": 38652, "name": "SES-5 (EGNOS/PRN 136)", "group": "gnss", "lat": 0.07630886145883856, "lon": 41.96904768713111, "alt_km": 35791.88616552484, "timestamp": "2025-12-15T20:48:54.127162+00:00", "meta": {"OBJECT_NAME": "SES-5 (EGNOS/PRN 136)", "OBJECT_ID": "2012-036A", "EPOCH": "2025-12-14T22:09:38.644416", "MEAN_MOTION": 1.00270103, "ECCENTRICITY": 0.00019722, "INCLINATION": 0.0579, "RA_OF_ASC_NODE": 304.8617, "ARG_OF_PERICENTER": 326.8696, "MEAN_ANOMALY": 149.4922, "EPHEMERIS_TYPE": 0, "CLASSIFICATION_TYPE": "U", "NORAD_CAT_ID": 38652, "ELEMENT_SET_NO": 999, "REV_AT_EPOCH": 4260, "BSTAR": 0, "MEAN_MOTION_DOT": 5.3e-07, "MEAN_MOTION_DDOT": 0}, "tle": {"line1": "1 38652U 12036A   25348.92336394  .00000053  00000+0  00000+0 0  9993", "line2": "2 38652   0.0579 304.8617 0001972 326.8696 149.4922  1.00270103 42602"}}, "geometry": {"type": "Point", "coordinates": [41.96904768713111, 0.07630886145883856]}}, {"type": "Feature", "properties": {"norad_id": 38775, "name": "BEIDOU-2 M6 (C14)", "group": "gnss", "lat": 56.29120568199493, "lon": 164.23908848488745, "alt_km": 21531.692569710613, "timestamp": "2025-12-15T20:48:54.127174+00:00", "meta": {"OBJECT_NAME": "BEIDOU-2 M6 (C14)", "OBJECT_ID": "2012-050B", "EPOCH": "2025-12-14T02:49:55.180128", "MEAN_MOTION": 1.86230875, "ECCENTRICITY": 0.0011244, "INCLINATION": 56.3796, "RA_OF_ASC_NODE": 69.0216, "ARG_OF_PERICENTER": 344.0149, "MEAN_ANOMALY": 15.9678, "EPHEMERIS_TYPE": 0, "CLASSIFICATION_TYPE": "U", "NORAD_CAT_ID": 38775, "ELEMENT_SET_NO": 999, "REV_AT_EPOCH": 8986, "BSTAR": 0, "MEAN_MOTION_DOT": -8.2e-07, "MEAN_MOTION_DDOT": 0}, "tle": {"line1": "1 38775U 12050B   25348.11799977 -.00000082  00000+0  00000+0 0  9999", "line2": "2 38775  56.3796  69.0216 0011244 344.0149  15.9678  1.86230875 89866"}}, "geometry": {"type": "Point", "coordinates": [164.23908848488745, 56.29120568199493]}}]}